<?xml version="1.0" encoding="UTF-8"?>
<kml xmlns="http://www.opengis.net/kml/2.2" xmlns:gx="http://www.google.com/kml/ext/2.2" xmlns:kml="http://www.opengis.net/kml/2.2" xmlns:atom="http://www.w3.org/2005/Atom">
<Document id="1qgHuGIRRWjcCpu6ThBTdDw1jffW-7pLK">
	<name>nte</name>
	<gx:CascadingStyle kml:id="__managed_style_28AA8F531A40DD300E58_highlight">
		<Style>
			<IconStyle>
				<scale>1.2</scale>
				<Icon>
					<href>https://earth.google.com/earth/document/icon?color=1976d2&amp;id=2000&amp;scale=4</href>
				</Icon>
				<hotSpot x="64" y="128" xunits="pixels" yunits="insetPixels"/>
			</IconStyle>
			<LabelStyle>
			</LabelStyle>
			<LineStyle>
				<color>ff58eeff</color>
				<width>6</width>
			</LineStyle>
			<PolyStyle>
				<color>40ffffff</color>
			</PolyStyle>
			<BalloonStyle>
			</BalloonStyle>
		</Style>
	</gx:CascadingStyle>
	<StyleMap id="__managed_style_28AA8F531A40DD300E58">
		<Pair>
			<key>normal</key>
			<styleUrl>#__managed_style_28AA8F531A40DD300E58_normal</styleUrl>
		</Pair>
		<Pair>
			<key>highlight</key>
			<styleUrl>#__managed_style_28AA8F531A40DD300E58_highlight</styleUrl>
		</Pair>
	</StyleMap>
	<gx:CascadingStyle kml:id="__managed_style_1A809E4EC540DD300E56_highlight">
		<Style>
			<IconStyle>
				<scale>1.2</scale>
				<Icon>
					<href>https://earth.google.com/earth/document/icon?color=1976d2&amp;id=2000&amp;scale=4</href>
				</Icon>
				<hotSpot x="64" y="128" xunits="pixels" yunits="insetPixels"/>
			</IconStyle>
			<LabelStyle>
			</LabelStyle>
			<LineStyle>
				<color>ff757575</color>
				<width>6</width>
			</LineStyle>
			<PolyStyle>
				<color>40ffffff</color>
			</PolyStyle>
			<BalloonStyle>
			</BalloonStyle>
		</Style>
	</gx:CascadingStyle>
	<gx:CascadingStyle kml:id="__managed_style_1A809E4EC540DD300E56_normal">
		<Style>
			<IconStyle>
				<Icon>
					<href>https://earth.google.com/earth/document/icon?color=1976d2&amp;id=2000&amp;scale=4</href>
				</Icon>
				<hotSpot x="64" y="128" xunits="pixels" yunits="insetPixels"/>
			</IconStyle>
			<LabelStyle>
			</LabelStyle>
			<LineStyle>
				<color>ff757575</color>
				<width>4</width>
			</LineStyle>
			<PolyStyle>
				<color>40ffffff</color>
			</PolyStyle>
			<BalloonStyle>
			</BalloonStyle>
		</Style>
	</gx:CascadingStyle>
	<gx:CascadingStyle kml:id="__managed_style_0FEE2855B240DD300E58_normal">
		<Style>
			<IconStyle>
				<Icon>
					<href>https://earth.google.com/earth/document/icon?color=1976d2&amp;id=2000&amp;scale=4</href>
				</Icon>
				<hotSpot x="64" y="128" xunits="pixels" yunits="insetPixels"/>
			</IconStyle>
			<LabelStyle>
			</LabelStyle>
			<LineStyle>
				<color>ffc06b5c</color>
				<width>4</width>
			</LineStyle>
			<PolyStyle>
				<color>40ffffff</color>
			</PolyStyle>
			<BalloonStyle>
			</BalloonStyle>
		</Style>
	</gx:CascadingStyle>
	<StyleMap id="__managed_style_0FEE2855B240DD300E58">
		<Pair>
			<key>normal</key>
			<styleUrl>#__managed_style_0FEE2855B240DD300E58_normal</styleUrl>
		</Pair>
		<Pair>
			<key>highlight</key>
			<styleUrl>#__managed_style_0FEE2855B240DD300E58_highlight</styleUrl>
		</Pair>
	</StyleMap>
	<gx:CascadingStyle kml:id="__managed_style_02F62A92A740DD300E56_highlight">
		<Style>
			<IconStyle>
				<scale>1.2</scale>
				<Icon>
					<href>https://earth.google.com/earth/document/icon?color=1976d2&amp;id=2000&amp;scale=4</href>
				</Icon>
				<hotSpot x="64" y="128" xunits="pixels" yunits="insetPixels"/>
			</IconStyle>
			<LabelStyle>
			</LabelStyle>
			<LineStyle>
				<color>ff9aa626</color>
				<width>6</width>
			</LineStyle>
			<PolyStyle>
				<color>40ffffff</color>
			</PolyStyle>
			<BalloonStyle>
			</BalloonStyle>
		</Style>
	</gx:CascadingStyle>
	<gx:CascadingStyle kml:id="__managed_style_1D7E0DCA2240DD300E57_highlight">
		<Style>
			<IconStyle>
				<scale>1.2</scale>
				<Icon>
					<href>https://earth.google.com/earth/document/icon?color=1976d2&amp;id=2000&amp;scale=4</href>
				</Icon>
				<hotSpot x="64" y="128" xunits="pixels" yunits="insetPixels"/>
			</IconStyle>
			<LabelStyle>
			</LabelStyle>
			<LineStyle>
				<color>ff000000</color>
				<width>6</width>
			</LineStyle>
			<PolyStyle>
				<color>40ffffff</color>
			</PolyStyle>
			<BalloonStyle>
			</BalloonStyle>
		</Style>
	</gx:CascadingStyle>
	<gx:CascadingStyle kml:id="__managed_style_0D05E371BA40DD300E59_normal">
		<Style>
			<IconStyle>
				<Icon>
					<href>https://earth.google.com/earth/document/icon?color=1976d2&amp;id=2000&amp;scale=4</href>
				</Icon>
				<hotSpot x="64" y="128" xunits="pixels" yunits="insetPixels"/>
			</IconStyle>
			<LabelStyle>
			</LabelStyle>
			<LineStyle>
				<color>ff6b7900</color>
				<width>4</width>
			</LineStyle>
			<PolyStyle>
				<color>40ffffff</color>
			</PolyStyle>
			<BalloonStyle>
			</BalloonStyle>
		</Style>
	</gx:CascadingStyle>
	<StyleMap id="__managed_style_1D7E0DCA2240DD300E57">
		<Pair>
			<key>normal</key>
			<styleUrl>#__managed_style_1D7E0DCA2240DD300E57_normal</styleUrl>
		</Pair>
		<Pair>
			<key>highlight</key>
			<styleUrl>#__managed_style_1D7E0DCA2240DD300E57_highlight</styleUrl>
		</Pair>
	</StyleMap>
	<gx:CascadingStyle kml:id="__managed_style_1D7E0DCA2240DD300E57_normal">
		<Style>
			<IconStyle>
				<Icon>
					<href>https://earth.google.com/earth/document/icon?color=1976d2&amp;id=2000&amp;scale=4</href>
				</Icon>
				<hotSpot x="64" y="128" xunits="pixels" yunits="insetPixels"/>
			</IconStyle>
			<LabelStyle>
			</LabelStyle>
			<LineStyle>
				<color>ff000000</color>
				<width>4</width>
			</LineStyle>
			<PolyStyle>
				<color>40ffffff</color>
			</PolyStyle>
			<BalloonStyle>
			</BalloonStyle>
		</Style>
	</gx:CascadingStyle>
	<StyleMap id="__managed_style_1C802B12FA40DD300E54">
		<Pair>
			<key>normal</key>
			<styleUrl>#__managed_style_1C802B12FA40DD300E54_normal</styleUrl>
		</Pair>
		<Pair>
			<key>highlight</key>
			<styleUrl>#__managed_style_1C802B12FA40DD300E54_highlight</styleUrl>
		</Pair>
	</StyleMap>
	<StyleMap id="__managed_style_1A809E4EC540DD300E56">
		<Pair>
			<key>normal</key>
			<styleUrl>#__managed_style_1A809E4EC540DD300E56_normal</styleUrl>
		</Pair>
		<Pair>
			<key>highlight</key>
			<styleUrl>#__managed_style_1A809E4EC540DD300E56_highlight</styleUrl>
		</Pair>
	</StyleMap>
	<StyleMap id="__managed_style_2A83ABBB8740DD300E54">
		<Pair>
			<key>normal</key>
			<styleUrl>#__managed_style_2A83ABBB8740DD300E54_normal</styleUrl>
		</Pair>
		<Pair>
			<key>highlight</key>
			<styleUrl>#__managed_style_2A83ABBB8740DD300E54_highlight</styleUrl>
		</Pair>
	</StyleMap>
	<gx:CascadingStyle kml:id="__managed_style_0D05E371BA40DD300E59_highlight">
		<Style>
			<IconStyle>
				<scale>1.2</scale>
				<Icon>
					<href>https://earth.google.com/earth/document/icon?color=1976d2&amp;id=2000&amp;scale=4</href>
				</Icon>
				<hotSpot x="64" y="128" xunits="pixels" yunits="insetPixels"/>
			</IconStyle>
			<LabelStyle>
			</LabelStyle>
			<LineStyle>
				<color>ff6b7900</color>
				<width>6</width>
			</LineStyle>
			<PolyStyle>
				<color>40ffffff</color>
			</PolyStyle>
			<BalloonStyle>
			</BalloonStyle>
		</Style>
	</gx:CascadingStyle>
	<StyleMap id="__managed_style_0D05E371BA40DD300E59">
		<Pair>
			<key>normal</key>
			<styleUrl>#__managed_style_0D05E371BA40DD300E59_normal</styleUrl>
		</Pair>
		<Pair>
			<key>highlight</key>
			<styleUrl>#__managed_style_0D05E371BA40DD300E59_highlight</styleUrl>
		</Pair>
	</StyleMap>
	<StyleMap id="__managed_style_0D50A45ED040DD300E51">
		<Pair>
			<key>normal</key>
			<styleUrl>#__managed_style_0D50A45ED040DD300E51_normal</styleUrl>
		</Pair>
		<Pair>
			<key>highlight</key>
			<styleUrl>#__managed_style_0D50A45ED040DD300E51_highlight</styleUrl>
		</Pair>
	</StyleMap>
	<gx:CascadingStyle kml:id="__managed_style_28AA8F531A40DD300E58_normal">
		<Style>
			<IconStyle>
				<Icon>
					<href>https://earth.google.com/earth/document/icon?color=1976d2&amp;id=2000&amp;scale=4</href>
				</Icon>
				<hotSpot x="64" y="128" xunits="pixels" yunits="insetPixels"/>
			</IconStyle>
			<LabelStyle>
			</LabelStyle>
			<LineStyle>
				<color>ff58eeff</color>
				<width>4</width>
			</LineStyle>
			<PolyStyle>
				<color>40ffffff</color>
			</PolyStyle>
			<BalloonStyle>
			</BalloonStyle>
		</Style>
	</gx:CascadingStyle>
	<gx:CascadingStyle kml:id="__managed_style_000154D1F640DD300E57_highlight">
		<Style>
			<IconStyle>
				<scale>1.2</scale>
				<Icon>
					<href>https://earth.google.com/earth/document/icon?color=1976d2&amp;id=2000&amp;scale=4</href>
				</Icon>
				<hotSpot x="64" y="128" xunits="pixels" yunits="insetPixels"/>
			</IconStyle>
			<LabelStyle>
			</LabelStyle>
			<LineStyle>
				<color>ff2f2fd3</color>
				<width>6</width>
			</LineStyle>
			<PolyStyle>
				<color>40ffffff</color>
			</PolyStyle>
			<BalloonStyle>
			</BalloonStyle>
		</Style>
	</gx:CascadingStyle>
	<gx:CascadingStyle kml:id="__managed_style_0FEE2855B240DD300E58_highlight">
		<Style>
			<IconStyle>
				<scale>1.2</scale>
				<Icon>
					<href>https://earth.google.com/earth/document/icon?color=1976d2&amp;id=2000&amp;scale=4</href>
				</Icon>
				<hotSpot x="64" y="128" xunits="pixels" yunits="insetPixels"/>
			</IconStyle>
			<LabelStyle>
			</LabelStyle>
			<LineStyle>
				<color>ffc06b5c</color>
				<width>6</width>
			</LineStyle>
			<PolyStyle>
				<color>40ffffff</color>
			</PolyStyle>
			<BalloonStyle>
			</BalloonStyle>
		</Style>
	</gx:CascadingStyle>
	<StyleMap id="__managed_style_000154D1F640DD300E57">
		<Pair>
			<key>normal</key>
			<styleUrl>#__managed_style_000154D1F640DD300E57_normal</styleUrl>
		</Pair>
		<Pair>
			<key>highlight</key>
			<styleUrl>#__managed_style_000154D1F640DD300E57_highlight</styleUrl>
		</Pair>
	</StyleMap>
	<gx:CascadingStyle kml:id="__managed_style_075A30777040DD300E54_highlight">
		<Style>
			<IconStyle>
				<scale>1.2</scale>
				<Icon>
					<href>https://earth.google.com/earth/document/icon?color=1976d2&amp;id=2000&amp;scale=4</href>
				</Icon>
				<hotSpot x="64" y="128" xunits="pixels" yunits="insetPixels"/>
			</IconStyle>
			<LabelStyle>
			</LabelStyle>
			<LineStyle>
				<color>ffa21f7b</color>
				<width>6</width>
			</LineStyle>
			<PolyStyle>
				<color>40ffffff</color>
			</PolyStyle>
			<BalloonStyle>
			</BalloonStyle>
		</Style>
	</gx:CascadingStyle>
	<gx:CascadingStyle kml:id="__managed_style_000154D1F640DD300E57_normal">
		<Style>
			<IconStyle>
				<Icon>
					<href>https://earth.google.com/earth/document/icon?color=1976d2&amp;id=2000&amp;scale=4</href>
				</Icon>
				<hotSpot x="64" y="128" xunits="pixels" yunits="insetPixels"/>
			</IconStyle>
			<LabelStyle>
			</LabelStyle>
			<LineStyle>
				<color>ff2f2fd3</color>
				<width>4</width>
			</LineStyle>
			<PolyStyle>
				<color>40ffffff</color>
			</PolyStyle>
			<BalloonStyle>
			</BalloonStyle>
		</Style>
	</gx:CascadingStyle>
	<gx:CascadingStyle kml:id="__managed_style_0D50A45ED040DD300E51_highlight">
		<Style>
			<IconStyle>
				<scale>1.2</scale>
				<Icon>
					<href>https://earth.google.com/earth/document/icon?color=1976d2&amp;id=2000&amp;scale=4</href>
				</Icon>
				<hotSpot x="64" y="128" xunits="pixels" yunits="insetPixels"/>
			</IconStyle>
			<LabelStyle>
			</LabelStyle>
			<LineStyle>
				<color>ff9f3f30</color>
				<width>6</width>
			</LineStyle>
			<PolyStyle>
				<color>40ffffff</color>
			</PolyStyle>
			<BalloonStyle>
			</BalloonStyle>
		</Style>
	</gx:CascadingStyle>
	<gx:CascadingStyle kml:id="__managed_style_2A83ABBB8740DD300E54_normal">
		<styleUrl>https://earth.google.com/balloon_components/base/1.1.0.0/card_template.kml#main</styleUrl>
		<Style>
			<IconStyle>
				<Icon>
					<href>https://earth.google.com/earth/document/icon?color=1976d2&amp;id=2000&amp;scale=4</href>
				</Icon>
				<hotSpot x="64" y="128" xunits="pixels" yunits="insetPixels"/>
			</IconStyle>
			<LabelStyle>
			</LabelStyle>
			<LineStyle>
				<color>ff6abb66</color>
				<width>4</width>
			</LineStyle>
			<PolyStyle>
				<color>40ffffff</color>
			</PolyStyle>
			<BalloonStyle>
			</BalloonStyle>
		</Style>
	</gx:CascadingStyle>
	<gx:CascadingStyle kml:id="__managed_style_2A83ABBB8740DD300E54_highlight">
		<styleUrl>https://earth.google.com/balloon_components/base/1.1.0.0/card_template.kml#main</styleUrl>
		<Style>
			<IconStyle>
				<scale>1.2</scale>
				<Icon>
					<href>https://earth.google.com/earth/document/icon?color=1976d2&amp;id=2000&amp;scale=4</href>
				</Icon>
				<hotSpot x="64" y="128" xunits="pixels" yunits="insetPixels"/>
			</IconStyle>
			<LabelStyle>
			</LabelStyle>
			<LineStyle>
				<color>ff6abb66</color>
				<width>6</width>
			</LineStyle>
			<PolyStyle>
				<color>40ffffff</color>
			</PolyStyle>
			<BalloonStyle>
			</BalloonStyle>
		</Style>
	</gx:CascadingStyle>
	<gx:CascadingStyle kml:id="__managed_style_1C802B12FA40DD300E54_normal">
		<Style>
			<IconStyle>
				<Icon>
					<href>https://earth.google.com/earth/document/icon?color=1976d2&amp;id=2000&amp;scale=4</href>
				</Icon>
				<hotSpot x="64" y="128" xunits="pixels" yunits="insetPixels"/>
			</IconStyle>
			<LabelStyle>
			</LabelStyle>
			<LineStyle>
				<color>fff5a542</color>
				<width>4</width>
			</LineStyle>
			<PolyStyle>
				<color>40ffffff</color>
			</PolyStyle>
			<BalloonStyle>
			</BalloonStyle>
		</Style>
	</gx:CascadingStyle>
	<StyleMap id="__managed_style_075A30777040DD300E54">
		<Pair>
			<key>normal</key>
			<styleUrl>#__managed_style_075A30777040DD300E54_normal</styleUrl>
		</Pair>
		<Pair>
			<key>highlight</key>
			<styleUrl>#__managed_style_075A30777040DD300E54_highlight</styleUrl>
		</Pair>
	</StyleMap>
	<gx:CascadingStyle kml:id="__managed_style_02F62A92A740DD300E56_normal">
		<Style>
			<IconStyle>
				<Icon>
					<href>https://earth.google.com/earth/document/icon?color=1976d2&amp;id=2000&amp;scale=4</href>
				</Icon>
				<hotSpot x="64" y="128" xunits="pixels" yunits="insetPixels"/>
			</IconStyle>
			<LabelStyle>
			</LabelStyle>
			<LineStyle>
				<color>ff9aa626</color>
				<width>4</width>
			</LineStyle>
			<PolyStyle>
				<color>40ffffff</color>
			</PolyStyle>
			<BalloonStyle>
			</BalloonStyle>
		</Style>
	</gx:CascadingStyle>
	<gx:CascadingStyle kml:id="__managed_style_1C802B12FA40DD300E54_highlight">
		<Style>
			<IconStyle>
				<scale>1.2</scale>
				<Icon>
					<href>https://earth.google.com/earth/document/icon?color=1976d2&amp;id=2000&amp;scale=4</href>
				</Icon>
				<hotSpot x="64" y="128" xunits="pixels" yunits="insetPixels"/>
			</IconStyle>
			<LabelStyle>
			</LabelStyle>
			<LineStyle>
				<color>fff5a542</color>
				<width>6</width>
			</LineStyle>
			<PolyStyle>
				<color>40ffffff</color>
			</PolyStyle>
			<BalloonStyle>
			</BalloonStyle>
		</Style>
	</gx:CascadingStyle>
	<gx:CascadingStyle kml:id="__managed_style_10A73EC53940DD300E58_highlight">
		<Style>
			<IconStyle>
				<scale>1.2</scale>
				<Icon>
					<href>https://earth.google.com/earth/document/icon?color=1976d2&amp;id=2000&amp;scale=4</href>
				</Icon>
				<hotSpot x="64" y="128" xunits="pixels" yunits="insetPixels"/>
			</IconStyle>
			<LabelStyle>
			</LabelStyle>
			<LineStyle>
				<color>ff2dc0fb</color>
				<width>6</width>
			</LineStyle>
			<PolyStyle>
				<color>40ffffff</color>
			</PolyStyle>
			<BalloonStyle>
			</BalloonStyle>
		</Style>
	</gx:CascadingStyle>
	<gx:CascadingStyle kml:id="__managed_style_075A30777040DD300E54_normal">
		<Style>
			<IconStyle>
				<Icon>
					<href>https://earth.google.com/earth/document/icon?color=1976d2&amp;id=2000&amp;scale=4</href>
				</Icon>
				<hotSpot x="64" y="128" xunits="pixels" yunits="insetPixels"/>
			</IconStyle>
			<LabelStyle>
			</LabelStyle>
			<LineStyle>
				<color>ffa21f7b</color>
				<width>4</width>
			</LineStyle>
			<PolyStyle>
				<color>40ffffff</color>
			</PolyStyle>
			<BalloonStyle>
			</BalloonStyle>
		</Style>
	</gx:CascadingStyle>
	<StyleMap id="__managed_style_02F62A92A740DD300E56">
		<Pair>
			<key>normal</key>
			<styleUrl>#__managed_style_02F62A92A740DD300E56_normal</styleUrl>
		</Pair>
		<Pair>
			<key>highlight</key>
			<styleUrl>#__managed_style_02F62A92A740DD300E56_highlight</styleUrl>
		</Pair>
	</StyleMap>
	<gx:CascadingStyle kml:id="__managed_style_0D50A45ED040DD300E51_normal">
		<Style>
			<IconStyle>
				<Icon>
					<href>https://earth.google.com/earth/document/icon?color=1976d2&amp;id=2000&amp;scale=4</href>
				</Icon>
				<hotSpot x="64" y="128" xunits="pixels" yunits="insetPixels"/>
			</IconStyle>
			<LabelStyle>
			</LabelStyle>
			<LineStyle>
				<color>ff9f3f30</color>
				<width>4</width>
			</LineStyle>
			<PolyStyle>
				<color>40ffffff</color>
			</PolyStyle>
			<BalloonStyle>
			</BalloonStyle>
		</Style>
	</gx:CascadingStyle>
	<gx:CascadingStyle kml:id="__managed_style_10A73EC53940DD300E58_normal">
		<Style>
			<IconStyle>
				<Icon>
					<href>https://earth.google.com/earth/document/icon?color=1976d2&amp;id=2000&amp;scale=4</href>
				</Icon>
				<hotSpot x="64" y="128" xunits="pixels" yunits="insetPixels"/>
			</IconStyle>
			<LabelStyle>
			</LabelStyle>
			<LineStyle>
				<color>ff2dc0fb</color>
				<width>4</width>
			</LineStyle>
			<PolyStyle>
				<color>40ffffff</color>
			</PolyStyle>
			<BalloonStyle>
			</BalloonStyle>
		</Style>
	</gx:CascadingStyle>
	<StyleMap id="__managed_style_10A73EC53940DD300E58">
		<Pair>
			<key>normal</key>
			<styleUrl>#__managed_style_10A73EC53940DD300E58_normal</styleUrl>
		</Pair>
		<Pair>
			<key>highlight</key>
			<styleUrl>#__managed_style_10A73EC53940DD300E58_highlight</styleUrl>
		</Pair>
	</StyleMap>
	<Placemark id="0CB06BABD540D84D3FFC">
		<name>nte</name>
		<LookAt>
			<longitude>35.87976609160167</longitude>
			<latitude>33.73508261217501</latitude>
			<altitude>872.5325758221744</altitude>
			<heading>133.2571328591524</heading>
			<tilt>0</tilt>
			<gx:fovy>35</gx:fovy>
			<range>3998.416616643663</range>
			<altitudeMode>absolute</altitudeMode>
		</LookAt>
		<styleUrl>#__managed_style_10A73EC53940DD300E58</styleUrl>
		<Polygon>
			<outerBoundaryIs>
				<LinearRing>
					<coordinates>
						35.8807609857462,33.73819928879611,0 35.87962732174768,33.73760332248786,0 35.87883834279222,33.73720399695749,0 35.88534152800947,33.72827822867701,0 35.88778068780565,33.72857365849075,0 35.8807609857462,33.73819928879611,0 
					</coordinates>
				</LinearRing>
			</outerBoundaryIs>
		</Polygon>
	</Placemark>
	<Placemark id="0D02CBFD7040D84F2F84">
		<name>nte 2</name>
		<description><![CDATA[<div><br></div>]]></description>
		<LookAt>
			<longitude>36.02521763440328</longitude>
			<latitude>33.91047415127319</latitude>
			<altitude>962.3754839269947</altitude>
			<heading>265.2811521713219</heading>
			<tilt>0</tilt>
			<gx:fovy>35</gx:fovy>
			<range>817.3126133275221</range>
			<altitudeMode>absolute</altitudeMode>
		</LookAt>
		<styleUrl>#__managed_style_2A83ABBB8740DD300E54</styleUrl>
		<Polygon>
			<outerBoundaryIs>
				<LinearRing>
					<coordinates>
						36.02420608908832,33.91071716324914,0 36.02382642535567,33.91044169676712,0 36.02368646563382,33.91049588779774,0 36.02350951079956,33.91055697426805,0 36.02316906868256,33.9102975465604,0 36.02496117377266,33.90955088213607,0 36.02554523535438,33.90999213918846,0 36.02550058440465,33.91008675940387,0 36.02534256946575,33.91021991827781,0 36.02511155850423,33.91038850894454,0 36.02490892512977,33.91045355336399,0 36.0245527114917,33.91061464339455,0 36.02420608908832,33.91071716324914,0 
					</coordinates>
				</LinearRing>
			</outerBoundaryIs>
		</Polygon>
	</Placemark>
	<Placemark id="0FBB0DDC2A40D8511F7F">
		<name>nte3 </name>
		<LookAt>
			<longitude>35.97594693613873</longitude>
			<latitude>33.86312053427097</latitude>
			<altitude>911.825237676422</altitude>
			<heading>99.88868028826501</heading>
			<tilt>0</tilt>
			<gx:fovy>35</gx:fovy>
			<range>1113.982547558262</range>
			<altitudeMode>absolute</altitudeMode>
		</LookAt>
		<styleUrl>#__managed_style_075A30777040DD300E54</styleUrl>
		<Polygon>
			<outerBoundaryIs>
				<LinearRing>
					<coordinates>
						35.97291515969433,33.86457058916878,0 35.97546324227797,33.86342748987826,0 35.97671353929051,33.86292637275633,0 35.97815207665862,33.86253570999376,0 35.97836264571279,33.8632619548705,0 35.97884724813262,33.86378454372321,0 35.97831715132251,33.86438459122783,0 35.97864063872537,33.86527813537397,0 35.97134616941869,33.86668053277924,0 35.97152426779743,33.86624603845233,0 35.97193882073319,33.86561124527766,0 35.97232958128827,33.86498000884703,0 35.97291515969433,33.86457058916878,0 
					</coordinates>
				</LinearRing>
			</outerBoundaryIs>
		</Polygon>
	</Placemark>
	<Placemark id="07F64B8E2140D8C67404">
		<name>4</name>
		<LookAt>
			<longitude>35.89014488930896</longitude>
			<latitude>33.72876889931752</latitude>
			<altitude>872.3851998697553</altitude>
			<heading>345.3068024279463</heading>
			<tilt>0</tilt>
			<gx:fovy>35</gx:fovy>
			<range>772.4976124406385</range>
			<altitudeMode>absolute</altitudeMode>
		</LookAt>
		<styleUrl>#__managed_style_000154D1F640DD300E57</styleUrl>
		<Polygon>
			<outerBoundaryIs>
				<LinearRing>
					<coordinates>
						35.89021511765616,33.72877440894248,0 35.88814450844201,33.73155487689166,0 35.88723367701673,33.73142480930228,0 35.88920851130649,33.72884630119356,0 35.89021511765616,33.72877440894248,0 
					</coordinates>
				</LinearRing>
			</outerBoundaryIs>
		</Polygon>
	</Placemark>
	<Placemark id="0DECB0B92640D8C75551">
		<name>5</name>
		<LookAt>
			<longitude>35.88655869058976</longitude>
			<latitude>33.73215788107474</latitude>
			<altitude>870.3841699491114</altitude>
			<heading>335.7336533896034</heading>
			<tilt>0</tilt>
			<gx:fovy>35</gx:fovy>
			<range>1951.834222334437</range>
			<altitudeMode>absolute</altitudeMode>
		</LookAt>
		<styleUrl>#__managed_style_0D50A45ED040DD300E51</styleUrl>
		<Polygon>
			<outerBoundaryIs>
				<LinearRing>
					<coordinates>
						35.88713508846986,33.73149996270501,0 35.88807944035837,33.73160804210163,0 35.88470048277955,33.73614390612862,0 35.88399049166993,33.73580638340641,0 35.88713508846986,33.73149996270501,0 
					</coordinates>
				</LinearRing>
			</outerBoundaryIs>
		</Polygon>
	</Placemark>
	<Placemark id="00154778A740D8C81AF5">
		<name>6</name>
		<LookAt>
			<longitude>35.88404005144651</longitude>
			<latitude>33.73708951217209</latitude>
			<altitude>876.6323031105491</altitude>
			<heading>333.6456579359347</heading>
			<tilt>0</tilt>
			<gx:fovy>35</gx:fovy>
			<range>1771.518432780867</range>
			<altitudeMode>absolute</altitudeMode>
		</LookAt>
		<styleUrl>#__managed_style_0D05E371BA40DD300E59</styleUrl>
		<Polygon>
			<outerBoundaryIs>
				<LinearRing>
					<coordinates>
						35.88006450892937,33.74229048289555,0 35.8793989335461,33.74196727525742,0 35.88395680329028,33.73586710345352,0 35.88459259566115,33.7362046191622,0 35.88006450892937,33.74229048289555,0 
					</coordinates>
				</LinearRing>
			</outerBoundaryIs>
		</Polygon>
	</Placemark>
	<Placemark id="04FE5732D740D8C9B8EA">
		<name>7</name>
		<LookAt>
			<longitude>35.87790594136919</longitude>
			<latitude>33.74472688334558</latitude>
			<altitude>867.912518235461</altitude>
			<heading>317.9537567384345</heading>
			<tilt>0</tilt>
			<gx:fovy>35</gx:fovy>
			<range>2686.119668393803</range>
			<altitudeMode>absolute</altitudeMode>
		</LookAt>
		<styleUrl>#__managed_style_1C802B12FA40DD300E54</styleUrl>
		<Polygon>
			<outerBoundaryIs>
				<LinearRing>
					<coordinates>
						35.87743536866079,33.74577518057848,0 35.87689517229751,33.74532753431259,0 35.87935586169228,33.74204950229002,0 35.87995215121191,33.74236532669817,0 35.87743536866079,33.74577518057848,0 
					</coordinates>
				</LinearRing>
			</outerBoundaryIs>
		</Polygon>
	</Placemark>
	<Placemark id="01203C5A5E40D8DD4F9F">
		<name>8</name>
		<LookAt>
			<longitude>35.89092733313009</longitude>
			<latitude>33.73532511252323</latitude>
			<altitude>872.5436177965892</altitude>
			<heading>317.946284310631</heading>
			<tilt>0</tilt>
			<gx:fovy>35</gx:fovy>
			<range>2595.119963208272</range>
			<altitudeMode>absolute</altitudeMode>
		</LookAt>
		<styleUrl>#__managed_style_1D7E0DCA2240DD300E57</styleUrl>
		<Polygon>
			<outerBoundaryIs>
				<LinearRing>
					<coordinates>
						35.89246131973118,33.73631933568795,0 35.89096834478023,33.73856856283948,0 35.89019095713555,33.73805990762584,0 35.88995082667426,33.73841363458357,0 35.886895997352,33.73580988745783,0 35.88853739658295,33.73386802668556,0 35.89246131973118,33.73631933568795,0 
					</coordinates>
				</LinearRing>
			</outerBoundaryIs>
		</Polygon>
	</Placemark>
	<Placemark id="03EB0D297040D8DE8F89">
		<name>9</name>
		<LookAt>
			<longitude>35.8918938857306</longitude>
			<latitude>33.73234354688478</latitude>
			<altitude>872.2832736774216</altitude>
			<heading>317.9589232265054</heading>
			<tilt>0</tilt>
			<gx:fovy>35</gx:fovy>
			<range>1679.280487527139</range>
			<altitudeMode>absolute</altitudeMode>
		</LookAt>
		<styleUrl>#__managed_style_02F62A92A740DD300E56</styleUrl>
		<Polygon>
			<outerBoundaryIs>
				<LinearRing>
					<coordinates>
						35.88854680379184,33.73374320403213,0 35.88936948828997,33.73283817945066,0 35.88956436219398,33.7323149499929,0 35.88999480053773,33.73185397629372,0 35.89402042046068,33.73428487806053,0 35.89254362683278,33.73623043581572,0 35.88854680379184,33.73374320403213,0 
					</coordinates>
				</LinearRing>
			</outerBoundaryIs>
		</Polygon>
	</Placemark>
	<Placemark id="085E7D8AFD40D8DF2735">
		<name>10</name>
		<LookAt>
			<longitude>35.90100705010902</longitude>
			<latitude>33.73272517326591</latitude>
			<altitude>877.80211598639</altitude>
			<heading>317.963965733336</heading>
			<tilt>0</tilt>
			<gx:fovy>35</gx:fovy>
			<range>1673.761808409181</range>
			<altitudeMode>absolute</altitudeMode>
		</LookAt>
		<styleUrl>#__managed_style_0FEE2855B240DD300E58</styleUrl>
		<Polygon>
			<outerBoundaryIs>
				<LinearRing>
					<coordinates>
						35.89656435132854,33.73526302247602,0 35.89567168281002,33.73401491605776,0 35.90190956107904,33.73201580761692,0 35.90265932215046,33.73313580625639,0 35.89656435132854,33.73526302247602,0 
					</coordinates>
				</LinearRing>
			</outerBoundaryIs>
		</Polygon>
	</Placemark>
	<Placemark id="024F57A57140D8E037FE">
		<name>11</name>
		<LookAt>
			<longitude>35.89774658893611</longitude>
			<latitude>33.75264889769263</latitude>
			<altitude>865.700876840542</altitude>
			<heading>337.8344488935938</heading>
			<tilt>0</tilt>
			<gx:fovy>35</gx:fovy>
			<range>3019.024905201223</range>
			<altitudeMode>absolute</altitudeMode>
		</LookAt>
		<styleUrl>#__managed_style_1A809E4EC540DD300E56</styleUrl>
		<Polygon>
			<outerBoundaryIs>
				<LinearRing>
					<coordinates>
						35.89648278597179,33.7559298699635,0 35.8954079534076,33.75546245419012,0 35.895555264873,33.75513046151741,0 35.8952079906868,33.75491873883964,0 35.89583164332848,33.75409922428831,0 35.89675630033031,33.75311747753603,0 35.89834359620839,33.75108380781651,0 35.8996667775534,33.75171587760865,0 35.89648278597179,33.7559298699635,0 
					</coordinates>
				</LinearRing>
			</outerBoundaryIs>
		</Polygon>
	</Placemark>
	<Placemark id="070C7A567140D8E0E3FA">
		<name>12</name>
		<LookAt>
			<longitude>35.89870330114047</longitude>
			<latitude>33.75605091136958</latitude>
			<altitude>867.7046128293754</altitude>
			<heading>337.8349612988036</heading>
			<tilt>0</tilt>
			<gx:fovy>35</gx:fovy>
			<range>3017.037379700923</range>
			<altitudeMode>absolute</altitudeMode>
		</LookAt>
		<styleUrl>#__managed_style_28AA8F531A40DD300E58</styleUrl>
		<Polygon>
			<outerBoundaryIs>
				<LinearRing>
					<coordinates>
						35.89914094953927,33.75579757882146,0 35.89542333783731,33.76055164124579,0 35.89384941935597,33.75961639732973,0 35.89745110601108,33.75479671695629,0 35.89914094953927,33.75579757882146,0 
					</coordinates>
				</LinearRing>
			</outerBoundaryIs>
		</Polygon>
	</Placemark>
	<Placemark id="053257A2B840D8E2392F">
		<name>Untitled measurement</name>
		<LookAt>
			<longitude>35.86444748368635</longitude>
			<latitude>33.77005858849952</latitude>
			<altitude>867.8129758133869</altitude>
			<heading>287.2491530439115</heading>
			<tilt>0</tilt>
			<gx:fovy>35</gx:fovy>
			<range>3774.941912032665</range>
			<altitudeMode>absolute</altitudeMode>
		</LookAt>
		<styleUrl>#__managed_style_10A73EC53940DD300E58</styleUrl>
		<LineString>
			<coordinates>
				35.86801455406738,33.76863379522536,0 35.86750602833263,33.76842426284621,0 35.86565228349642,33.76722485085254,0 35.85459007682234,33.77759427024603,0 35.85578786355966,33.78014262548127,0 35.86802592278219,33.76865223065185,0 35.86750998256851,33.76840948255988,0 
			</coordinates>
		</LineString>
	</Placemark>
	<Placemark id="0F78E9847640D8E422C2">
		<name>13</name>
		<LookAt>
			<longitude>35.8534867290381</longitude>
			<latitude>33.77263295821766</latitude>
			<altitude>867.6844262607345</altitude>
			<heading>103.147062713051</heading>
			<tilt>0</tilt>
			<gx:fovy>35</gx:fovy>
			<range>2901.073360376177</range>
			<altitudeMode>absolute</altitudeMode>
		</LookAt>
		<styleUrl>#__managed_style_28AA8F531A40DD300E58</styleUrl>
		<Polygon>
			<outerBoundaryIs>
				<LinearRing>
					<coordinates>
						35.85463517555211,33.7773091894702,0 35.85321567266549,33.77390926323893,0 35.86294217573106,33.76546048422806,0 35.86549447452793,33.76714234754355,0 35.85463517555211,33.7773091894702,0 
					</coordinates>
				</LinearRing>
			</outerBoundaryIs>
		</Polygon>
	</Placemark>
</Document>
</kml>
